{
    "links": {
        "self": "http://www.neowsapp.com/rest/v1/neo/3180153?api_key=iIulBulltgU6a56xZRHN4H3l9WmuAYTsLGpBGhQ2"
    },
    "id": "3180153",
    "neo_reference_id": "3180153",
    "name": "(2004 HG12)",
    "designation": "2004 HG12",
    "nasa_jpl_url": "http://ssd.jpl.nasa.gov/sbdb.cgi?sstr=3180153",
    "absolute_magnitude_h": 22.4,
    "estimated_diameter": {
        "kilometers": {
            "estimated_diameter_min": 0.0880146521,
            "estimated_diameter_max": 0.1968067451
        },
        "meters": {
            "estimated_diameter_min": 88.0146520901,
            "estimated_diameter_max": 196.8067450894
        },
        "miles": {
            "estimated_diameter_min": 0.0546897524,
            "estimated_diameter_max": 0.122290004
        },
        "feet": {
            "estimated_diameter_min": 288.7619911632,
            "estimated_diameter_max": 645.6914415591
        }
    },
    "is_potentially_hazardous_asteroid": true,
    "close_approach_data": [
        {
            "close_approach_date": "2004-04-23",
            "close_approach_date_full": "2004-Apr-23 02:36",
            "epoch_date_close_approach": 1082687760000,
            "relative_velocity": {
                "kilometers_per_second": "15.4028069829",
                "kilometers_per_hour": "55450.1051383777",
                "miles_per_hour": "34454.5389400103"
            },
            "miss_distance": {
                "astronomical": "0.0785518596",
                "lunar": "30.5566733844",
                "kilometers": "11751190.880699052",
                "miles": "7301851.4219168376"
            },
            "orbiting_body": "Earth"
        },
        {
            "close_approach_date": "2004-09-18",
            "close_approach_date_full": "2004-Sep-18 11:29",
            "epoch_date_close_approach": 1095506940000,
            "relative_velocity": {
                "kilometers_per_second": "13.5401709876",
                "kilometers_per_hour": "48744.6155553521",
                "miles_per_hour": "30288.0084821575"
            },
            "miss_distance": {
                "astronomical": "0.456965083",
                "lunar": "177.759417287",
                "kilometers": "68361003.08117321",
                "miles": "42477557.604121898"
            },
            "orbiting_body": "Earth"
        },
        {
            "close_approach_date": "2089-04-13",
            "close_approach_date_full": "2089-Apr-13 17:57",
            "epoch_date_close_approach": 3764253420000,
            "relative_velocity": {
                "kilometers_per_second": "18.1934702592",
                "kilometers_per_hour": "65496.4929329659",
                "miles_per_hour": "40696.9736227087"
            },
            "miss_distance": {
                "astronomical": "0.127824133",
                "lunar": "49.723587737",
                "kilometers": "19122218.03139671",
                "miles": "11881995.309266198"
            },
            "orbiting_body": "Earth"
        },
        {
            "close_approach_date": "2160-05-04",
            "close_approach_date_full": "2160-May-04 07:29",
            "epoch_date_close_approach": 6006554940000,
            "relative_velocity": {
                "kilometers_per_second": "14.447874529",
                "kilometers_per_hour": "52012.3483044133",
                "miles_per_hour": "32318.4505339284"
            },
            "miss_distance": {
                "astronomical": "0.2504702466",
                "lunar": "97.4329259274",
                "kilometers": "37469815.389734742",
                "miles": "23282663.6517217596"
            },
            "orbiting_body": "Earth"
        },
        {
            "close_approach_date": "2160-09-14",
            "close_approach_date_full": "2160-Sep-14 06:23",
            "epoch_date_close_approach": 6018042180000,
            "relative_velocity": {
                "kilometers_per_second": "13.8741826626",
                "kilometers_per_hour": "49947.0575855166",
                "miles_per_hour": "31035.1591980672"
            },
            "miss_distance": {
                "astronomical": "0.4233317543",
                "lunar": "164.6760524227",
                "kilometers": "63329528.746643341",
                "miles": "39351144.4263504658"
            },
            "orbiting_body": "Earth"
        }
    ],
    "orbital_data": {
        "orbit_id": "9",
        "orbit_determination_date": "2017-04-06 09:12:54",
        "first_observation_date": "2004-04-21",
        "last_observation_date": "2004-05-04",
        "data_arc_in_days": 13,
        "observations_used": 52,
        "orbit_uncertainty": "8",
        "minimum_orbit_intersection": ".0267228",
        "jupiter_tisserand_invariant": "4.490",
        "epoch_osculation": "2453121.5",
        "eccentricity": ".3453342419882113",
        "semi_major_axis": "1.44298608032502",
        "inclination": "26.55095127546648",
        "ascending_node_longitude": "208.2156476002729",
        "orbital_period": "633.1281733183802",
        "perihelion_distance": ".9446735760764388",
        "perihelion_argument": "48.46551496281476",
        "aphelion_distance": "1.9412985845736",
        "perihelion_time": "2453159.124457735719",
        "mean_anomaly": "338.6065359974945",
        "mean_motion": ".5686052448324194",
        "equinox": "J2000",
        "orbit_class": {
            "orbit_class_type": "APO",
            "orbit_class_description": "Near-Earth asteroid orbits which cross the Earth’s orbit similar to that of 1862 Apollo",
            "orbit_class_range": "a (semi-major axis) > 1.0 AU; q (perihelion) < 1.017 AU"
        }
    },
    "is_sentry_object": false
}